UNKNOWN                 
1 87557U          25301.31045233  .00005186  00000+0  11622-1 0  9996
2 87557 101.7150 150.9150 0047050 110.3500 250.2678 13.27191560559000
UNKNOWN                 
1 87561U          25296.44432344 -.00000037  00000+0  47906-4 0  9999
2 87561 102.0173 355.3635 0173903  25.5651 347.2280 12.32149893536248
UNKNOWN                 
1 87565U          25299.41093881  .00002035  00000+0  11183-2 0  9997
2 87565  99.9429 286.4074 0172145 299.3560  59.0506 14.05821183609788
UNKNOWN                 
1 87569U          25300.99134094 -.00000031  00000+0  91480-4 0  9994
2 87569 101.9895 116.5851 0055619 343.3295 168.6047 12.68538919552660
UNKNOWN                 
1 87590U          25293.60074515  .00000861  00000+0  50835-3 0  9996
2 87590  98.7953 331.9132 0027590  75.3739  75.5178 14.10224525146753
UNKNOWN                 
1 87616U          25298.30237366  .00000299  00000+0  11794-2 0  9997
2 87616  66.0318 243.8186 0634293 160.2602 352.5311 12.46829466530196
UNKNOWN                 
1 87650U          25297.70243100  .00015235  00000+0  31605-2 0  9990
2 87650 100.2714 101.2804 0032156  64.6997 295.7521 14.59975231 72609
UNKNOWN                 
1 87672U          25293.87834996  .00001939  00000+0  79499-3 0  9997
2 87672  70.8562 120.8372 0059359 351.7560   8.2586 14.27451125616915
UNKNOWN                 
1 87681U          25299.73572779  .00000990  00000+0  10873-2 0  9992
2 87681  66.7364 210.0028 0160118 194.0755 165.5825 13.70960360595393
UNKNOWN                 
1 87690U          25300.20796225  .00005482  00000+0  85366-3 0  9992
2 87690  65.7922 114.9133 0578349  71.5832 294.7210 13.99843029600860
