CCSDS_OMM_VERS = 2.0
CREATION_DATE  = 
ORIGINATOR     = 

OBJECT_NAME    = UNKNOWN
OBJECT_ID      = 
CENTER_NAME    = EARTH
REF_FRAME      = TEME
TIME_SYSTEM    = UTC
MEAN_ELEMENT_THEORY = SGP/SGP4

EPOCH          = 2025-10-28T07:27:03.081312
MEAN_MOTION    = 13.27191560
ECCENTRICITY   = .004705
INCLINATION    = 101.7150
RA_OF_ASC_NODE = 150.9150
ARG_OF_PERICENTER = 110.3500
MEAN_ANOMALY   = 250.2678

EPHEMERIS_TYPE = 0
CLASSIFICATION_TYPE = U
NORAD_CAT_ID   = 87557
ELEMENT_SET_NO = 999
REV_AT_EPOCH   = 55900
BSTAR          = .11622E-1
MEAN_MOTION_DOT = .5186E-4
MEAN_MOTION_DDOT = 0

CCSDS_OMM_VERS = 2.0
CREATION_DATE  = 
ORIGINATOR     = 

OBJECT_NAME    = UNKNOWN
OBJECT_ID      = 
CENTER_NAME    = EARTH
REF_FRAME      = TEME
TIME_SYSTEM    = UTC
MEAN_ELEMENT_THEORY = SGP/SGP4

EPOCH          = 2025-10-23T10:39:49.545216
MEAN_MOTION    = 12.32149893
ECCENTRICITY   = .0173903
INCLINATION    = 102.0173
RA_OF_ASC_NODE = 355.3635
ARG_OF_PERICENTER = 25.5651
MEAN_ANOMALY   = 347.2280

EPHEMERIS_TYPE = 0
CLASSIFICATION_TYPE = U
NORAD_CAT_ID   = 87561
ELEMENT_SET_NO = 999
REV_AT_EPOCH   = 53624
BSTAR          = .47906E-4
MEAN_MOTION_DOT = -.37E-6
MEAN_MOTION_DDOT = 0

CCSDS_OMM_VERS = 2.0
CREATION_DATE  = 
ORIGINATOR     = 

OBJECT_NAME    = UNKNOWN
OBJECT_ID      = 
CENTER_NAME    = EARTH
REF_FRAME      = TEME
TIME_SYSTEM    = UTC
MEAN_ELEMENT_THEORY = SGP/SGP4

EPOCH          = 2025-10-26T09:51:45.113184
MEAN_MOTION    = 14.05821183
ECCENTRICITY   = .0172145
INCLINATION    = 99.9429
RA_OF_ASC_NODE = 286.4074
ARG_OF_PERICENTER = 299.3560
MEAN_ANOMALY   = 59.0506

EPHEMERIS_TYPE = 0
CLASSIFICATION_TYPE = U
NORAD_CAT_ID   = 87565
ELEMENT_SET_NO = 999
REV_AT_EPOCH   = 60978
BSTAR          = .11183E-2
MEAN_MOTION_DOT = .2035E-4
MEAN_MOTION_DDOT = 0

CCSDS_OMM_VERS = 2.0
CREATION_DATE  = 
ORIGINATOR     = 

OBJECT_NAME    = UNKNOWN
OBJECT_ID      = 
CENTER_NAME    = EARTH
REF_FRAME      = TEME
TIME_SYSTEM    = UTC
MEAN_ELEMENT_THEORY = SGP/SGP4

EPOCH          = 2025-10-27T23:47:31.857216
MEAN_MOTION    = 12.68538919
ECCENTRICITY   = .0055619
INCLINATION    = 101.9895
RA_OF_ASC_NODE = 116.5851
ARG_OF_PERICENTER = 343.3295
MEAN_ANOMALY   = 168.6047

EPHEMERIS_TYPE = 0
CLASSIFICATION_TYPE = U
NORAD_CAT_ID   = 87569
ELEMENT_SET_NO = 999
REV_AT_EPOCH   = 55266
BSTAR          = .9148E-4
MEAN_MOTION_DOT = -.31E-6
MEAN_MOTION_DDOT = 0

CCSDS_OMM_VERS = 2.0
CREATION_DATE  = 
ORIGINATOR     = 

OBJECT_NAME    = UNKNOWN
OBJECT_ID      = 
CENTER_NAME    = EARTH
REF_FRAME      = TEME
TIME_SYSTEM    = UTC
MEAN_ELEMENT_THEORY = SGP/SGP4

EPOCH          = 2025-10-20T14:25:04.380960
MEAN_MOTION    = 14.10224525
ECCENTRICITY   = .002759
INCLINATION    = 98.7953
RA_OF_ASC_NODE = 331.9132
ARG_OF_PERICENTER = 75.3739
MEAN_ANOMALY   = 75.5178

EPHEMERIS_TYPE = 0
CLASSIFICATION_TYPE = U
NORAD_CAT_ID   = 87590
ELEMENT_SET_NO = 999
REV_AT_EPOCH   = 14675
BSTAR          = .50835E-3
MEAN_MOTION_DOT = .861E-5
MEAN_MOTION_DDOT = 0

CCSDS_OMM_VERS = 2.0
CREATION_DATE  = 
ORIGINATOR     = 

OBJECT_NAME    = UNKNOWN
OBJECT_ID      = 
CENTER_NAME    = EARTH
REF_FRAME      = TEME
TIME_SYSTEM    = UTC
MEAN_ELEMENT_THEORY = SGP/SGP4

EPOCH          = 2025-10-25T07:15:25.084224
MEAN_MOTION    = 12.46829466
ECCENTRICITY   = .0634293
INCLINATION    = 66.0318
RA_OF_ASC_NODE = 243.8186
ARG_OF_PERICENTER = 160.2602
MEAN_ANOMALY   = 352.5311

EPHEMERIS_TYPE = 0
CLASSIFICATION_TYPE = U
NORAD_CAT_ID   = 87616
ELEMENT_SET_NO = 999
REV_AT_EPOCH   = 53019
BSTAR          = .11794E-2
MEAN_MOTION_DOT = .299E-5
MEAN_MOTION_DDOT = 0

CCSDS_OMM_VERS = 2.0
CREATION_DATE  = 
ORIGINATOR     = 

OBJECT_NAME    = UNKNOWN
OBJECT_ID      = 
CENTER_NAME    = EARTH
REF_FRAME      = TEME
TIME_SYSTEM    = UTC
MEAN_ELEMENT_THEORY = SGP/SGP4

EPOCH          = 2025-10-24T16:51:30.038400
MEAN_MOTION    = 14.59975231
ECCENTRICITY   = .0032156
INCLINATION    = 100.2714
RA_OF_ASC_NODE = 101.2804
ARG_OF_PERICENTER = 64.6997
MEAN_ANOMALY   = 295.7521

EPHEMERIS_TYPE = 0
CLASSIFICATION_TYPE = U
NORAD_CAT_ID   = 87650
ELEMENT_SET_NO = 999
REV_AT_EPOCH   = 7260
BSTAR          = .31605E-2
MEAN_MOTION_DOT = .15235E-3
MEAN_MOTION_DDOT = 0

CCSDS_OMM_VERS = 2.0
CREATION_DATE  = 
ORIGINATOR     = 

OBJECT_NAME    = UNKNOWN
OBJECT_ID      = 
CENTER_NAME    = EARTH
REF_FRAME      = TEME
TIME_SYSTEM    = UTC
MEAN_ELEMENT_THEORY = SGP/SGP4

EPOCH          = 2025-10-20T21:04:49.436544
MEAN_MOTION    = 14.27451125
ECCENTRICITY   = .0059359
INCLINATION    = 70.8562
RA_OF_ASC_NODE = 120.8372
ARG_OF_PERICENTER = 351.7560
MEAN_ANOMALY   = 8.2586

EPHEMERIS_TYPE = 0
CLASSIFICATION_TYPE = U
NORAD_CAT_ID   = 87672
ELEMENT_SET_NO = 999
REV_AT_EPOCH   = 61691
BSTAR          = .79499E-3
MEAN_MOTION_DOT = .1939E-4
MEAN_MOTION_DDOT = 0

CCSDS_OMM_VERS = 2.0
CREATION_DATE  = 
ORIGINATOR     = 

OBJECT_NAME    = UNKNOWN
OBJECT_ID      = 
CENTER_NAME    = EARTH
REF_FRAME      = TEME
TIME_SYSTEM    = UTC
MEAN_ELEMENT_THEORY = SGP/SGP4

EPOCH          = 2025-10-26T17:39:26.881056
MEAN_MOTION    = 13.70960360
ECCENTRICITY   = .0160118
INCLINATION    = 66.7364
RA_OF_ASC_NODE = 210.0028
ARG_OF_PERICENTER = 194.0755
MEAN_ANOMALY   = 165.5825

EPHEMERIS_TYPE = 0
CLASSIFICATION_TYPE = U
NORAD_CAT_ID   = 87681
ELEMENT_SET_NO = 999
REV_AT_EPOCH   = 59539
BSTAR          = .10873E-2
MEAN_MOTION_DOT = .99E-5
MEAN_MOTION_DDOT = 0

CCSDS_OMM_VERS = 2.0
CREATION_DATE  = 
ORIGINATOR     = 

OBJECT_NAME    = UNKNOWN
OBJECT_ID      = 
CENTER_NAME    = EARTH
REF_FRAME      = TEME
TIME_SYSTEM    = UTC
MEAN_ELEMENT_THEORY = SGP/SGP4

EPOCH          = 2025-10-27T04:59:27.938400
MEAN_MOTION    = 13.99843029
ECCENTRICITY   = .0578349
INCLINATION    = 65.7922
RA_OF_ASC_NODE = 114.9133
ARG_OF_PERICENTER = 71.5832
MEAN_ANOMALY   = 294.7210

EPHEMERIS_TYPE = 0
CLASSIFICATION_TYPE = U
NORAD_CAT_ID   = 87690
ELEMENT_SET_NO = 999
REV_AT_EPOCH   = 60086
BSTAR          = .85366E-3
MEAN_MOTION_DOT = .5482E-4
MEAN_MOTION_DDOT = 0

